[{"OBJECT_NAME":"STARLINK-35410","OBJECT_ID":"2025-232V","EPOCH":"2026-01-09T06:34:20.220960","MEAN_MOTION":15.30216312,"ECCENTRICITY":0.00014286,"INCLINATION":53.1638,"RA_OF_ASC_NODE":19.5387,"ARG_OF_PERICENTER":137.5785,"MEAN_ANOMALY":222.5326,"EPHEMERIS_TYPE":0,"CLASSIFICATION_TYPE":"U","NORAD_CAT_ID":66024,"ELEMENT_SET_NO":999,"REV_AT_EPOCH":1434,"BSTAR":0.00085471137,"MEAN_MOTION_DOT":0.00025053,"MEAN_MOTION_DDOT":0},{"OBJECT_NAME":"STARLINK-35280","OBJECT_ID":"2025-232W","EPOCH":"2026-01-09T08:19:01.640064","MEAN_MOTION":15.30206598,"ECCENTRICITY":0.00012425,"INCLINATION":53.1608,"RA_OF_ASC_NODE":19.2847,"ARG_OF_PERICENTER":83.58,"MEAN_ANOMALY":276.5342,"EPHEMERIS_TYPE":0,"CLASSIFICATION_TYPE":"U","NORAD_CAT_ID":66025,"ELEMENT_SET_NO":999,"REV_AT_EPOCH":1435,"BSTAR":0.00049011596,"MEAN_MOTION_DOT":0.00014187,"MEAN_MOTION_DDOT":0},{"OBJECT_NAME":"STARLINK-34812","OBJECT_ID":"2025-232X","EPOCH":"2026-01-09T06:28:26.264352","MEAN_MOTION":15.30203856,"ECCENTRICITY":0.00020251,"INCLINATION":53.1615,"RA_OF_ASC_NODE":20.2225,"ARG_OF_PERICENTER":151.6682,"MEAN_ANOMALY":208.4429,"EPHEMERIS_TYPE":0,"CLASSIFICATION_TYPE":"U","NORAD_CAT_ID":66026,"ELEMENT_SET_NO":999,"REV_AT_EPOCH":1432,"BSTAR":0.0010886384,"MEAN_MOTION_DOT":0.00032027,"MEAN_MOTION_DDOT":0},{"OBJECT_NAME":"STARLINK-35341","OBJECT_ID":"2025-232Y","EPOCH":"2026-01-09T06:25:24.019968","MEAN_MOTION":15.30182147,"ECCENTRICITY":8.829e-5,"INCLINATION":53.1613,"RA_OF_ASC_NODE":20.2042,"ARG_OF_PERICENTER":101.5487,"MEAN_ANOMALY":258.5613,"EPHEMERIS_TYPE":0,"CLASSIFICATION_TYPE":"U","NORAD_CAT_ID":66027,"ELEMENT_SET_NO":999,"REV_AT_EPOCH":1433,"BSTAR":0.0010190249,"MEAN_MOTION_DOT":0.00029926,"MEAN_MOTION_DDOT":0},{"OBJECT_NAME":"STARLINK-35339","OBJECT_ID":"2025-232Z","EPOCH":"2026-01-09T07:41:12.189408","MEAN_MOTION":15.30196447,"ECCENTRICITY":0.00010669,"INCLINATION":53.1591,"RA_OF_ASC_NODE":19.8249,"ARG_OF_PERICENTER":94.3186,"MEAN_ANOMALY":265.7937,"EPHEMERIS_TYPE":0,"CLASSIFICATION_TYPE":"U","NORAD_CAT_ID":66028,"ELEMENT_SET_NO":999,"REV_AT_EPOCH":1434,"BSTAR":0.00037033948,"MEAN_MOTION_DOT":0.00010624,"MEAN_MOTION_DDOT":0},{"OBJECT_NAME":"STARLINK-35399","OBJECT_ID":"2025-232AA","EPOCH":"2026-01-09T06:19:18.205824","MEAN_MOTION":15.30219588,"ECCENTRICITY":0.00010835,"INCLINATION":53.1602,"RA_OF_ASC_NODE":20.1779,"ARG_OF_PERICENTER":106.298,"MEAN_ANOMALY":253.814,"EPHEMERIS_TYPE":0,"CLASSIFICATION_TYPE":"U","NORAD_CAT_ID":66029,"ELEMENT_SET_NO":999,"REV_AT_EPOCH":1433,"BSTAR":0.001302124,"MEAN_MOTION_DOT":0.00038429,"MEAN_MOTION_DDOT":0},{"OBJECT_NAME":"STARLINK-35431","OBJECT_ID":"2025-232AB","EPOCH":"2026-01-09T07:44:14.432928","MEAN_MOTION":15.30198105,"ECCENTRICITY":0.000122,"INCLINATION":53.1594,"RA_OF_ASC_NODE":19.8352,"ARG_OF_PERICENTER":79.0032,"MEAN_ANOMALY":281.1106,"EPHEMERIS_TYPE":0,"CLASSIFICATION_TYPE":"U","NORAD_CAT_ID":66030,"ELEMENT_SET_NO":999,"REV_AT_EPOCH":1434,"BSTAR":0.00038235639,"MEAN_MOTION_DOT":0.00010981,"MEAN_MOTION_DDOT":0},{"OBJECT_NAME":"STARLINK-35326","OBJECT_ID":"2025-232AC","EPOCH":"2026-01-09T07:50:19.097952","MEAN_MOTION":15.30191732,"ECCENTRICITY":0.00011792,"INCLINATION":53.1594,"RA_OF_ASC_NODE":19.8566,"ARG_OF_PERICENTER":81.5527,"MEAN_ANOMALY":278.5608,"EPHEMERIS_TYPE":0,"CLASSIFICATION_TYPE":"U","NORAD_CAT_ID":66031,"ELEMENT_SET_NO":999,"REV_AT_EPOCH":1434,"BSTAR":0.00035176615,"MEAN_MOTION_DOT":0.00010071,"MEAN_MOTION_DDOT":0},{"OBJECT_NAME":"STARLINK-35311","OBJECT_ID":"2025-232AD","EPOCH":"2026-01-09T07:35:07.299744","MEAN_MOTION":15.30193771,"ECCENTRICITY":0.00013774,"INCLINATION":53.1603,"RA_OF_ASC_NODE":19.7877,"ARG_OF_PERICENTER":82.3551,"MEAN_ANOMALY":277.7606,"EPHEMERIS_TYPE":0,"CLASSIFICATION_TYPE":"U","NORAD_CAT_ID":66032,"ELEMENT_SET_NO":999,"REV_AT_EPOCH":1434,"BSTAR":0.0010574839,"MEAN_MOTION_DOT":0.00031086,"MEAN_MOTION_DDOT":0},{"OBJECT_NAME":"STARLINK-35552","OBJECT_ID":"2025-235A","EPOCH":"2026-01-09T15:12:13.422816","MEAN_MOTION":15.30191125,"ECCENTRICITY":9.783e-5,"INCLINATION":53.1579,"RA_OF_ASC_NODE":157.1315,"ARG_OF_PERICENTER":101.3268,"MEAN_ANOMALY":258.7842,"EPHEMERIS_TYPE":0,"CLASSIFICATION_TYPE":"U","NORAD_CAT_ID":66058,"ELEMENT_SET_NO":999,"REV_AT_EPOCH":1391,"BSTAR":0.0009300635,"MEAN_MOTION_DOT":0.0002728,"MEAN_MOTION_DDOT":0},{"OBJECT_NAME":"STARLINK-35560","OBJECT_ID":"2025-235B","EPOCH":"2026-01-09T15:49:27.768288","MEAN_MOTION":15.30203632,"ECCENTRICITY":8.347e-5,"INCLINATION":53.1605,"RA_OF_ASC_NODE":159.4608,"ARG_OF_PERICENTER":95.5145,"MEAN_ANOMALY":264.5951,"EPHEMERIS_TYPE":0,"CLASSIFICATION_TYPE":"U","NORAD_CAT_ID":66059,"ELEMENT_SET_NO":999,"REV_AT_EPOCH":1388,"BSTAR":0.0010069719,"MEAN_MOTION_DOT":0.00029587,"MEAN_MOTION_DDOT":0},{"OBJECT_NAME":"STARLINK-35558","OBJECT_ID":"2025-235C","EPOCH":"2026-01-09T14:53:23.803296","MEAN_MOTION":15.30203155,"ECCENTRICITY":0.00014988,"INCLINATION":53.16,"RA_OF_ASC_NODE":159.9319,"ARG_OF_PERICENTER":122.9614,"MEAN_ANOMALY":237.1532,"EPHEMERIS_TYPE":0,"CLASSIFICATION_TYPE":"U","NORAD_CAT_ID":66060,"ELEMENT_SET_NO":999,"REV_AT_EPOCH":1387,"BSTAR":0.00075633868,"MEAN_MOTION_DOT":0.0002211,"MEAN_MOTION_DDOT":0},{"OBJECT_NAME":"STARLINK-35566","OBJECT_ID":"2025-235D","EPOCH":"2026-01-09T15:22:06.603744","MEAN_MOTION":15.30195289,"ECCENTRICITY":9.709e-5,"INCLINATION":53.1569,"RA_OF_ASC_NODE":159.3399,"ARG_OF_PERICENTER":89.0491,"MEAN_ANOMALY":271.0621,"EPHEMERIS_TYPE":0,"CLASSIFICATION_TYPE":"U","NORAD_CAT_ID":66061,"ELEMENT_SET_NO":999,"REV_AT_EPOCH":1388,"BSTAR":0.00042263065,"MEAN_MOTION_DOT":0.00012177,"MEAN_MOTION_DDOT":0},{"OBJECT_NAME":"STARLINK-35421","OBJECT_ID":"2025-235E","EPOCH":"2026-01-09T16:09:13.192704","MEAN_MOTION":15.30198735,"ECCENTRICITY":0.0001305,"INCLINATION":53.1598,"RA_OF_ASC_NODE":159.5491,"ARG_OF_PERICENTER":82.027,"MEAN_ANOMALY":278.0879,"EPHEMERIS_TYPE":0,"CLASSIFICATION_TYPE":"U","NORAD_CAT_ID":66062,"ELEMENT_SET_NO":999,"REV_AT_EPOCH":1388,"BSTAR":0.00075744941,"MEAN_MOTION_DOT":0.0002214,"MEAN_MOTION_DDOT":0},{"OBJECT_NAME":"STARLINK-35562","OBJECT_ID":"2025-235F","EPOCH":"2026-01-09T15:05:33.326880","MEAN_MOTION":15.3023387,"ECCENTRICITY":0.00012615,"INCLINATION":53.1589,"RA_OF_ASC_NODE":159.9785,"ARG_OF_PERICENTER":66.4031,"MEAN_ANOMALY":293.7102,"EPHEMERIS_TYPE":0,"CLASSIFICATION_TYPE":"U","NORAD_CAT_ID":66063,"ELEMENT_SET_NO":999,"REV_AT_EPOCH":1387,"BSTAR":0.0016291131,"MEAN_MOTION_DOT":0.00048255,"MEAN_MOTION_DDOT":0},{"OBJECT_NAME":"STARLINK-35542","OBJECT_ID":"2025-235G","EPOCH":"2026-01-09T14:38:12.456960","MEAN_MOTION":15.30206899,"ECCENTRICITY":0.00016496,"INCLINATION":53.1606,"RA_OF_ASC_NODE":159.8678,"ARG_OF_PERICENTER":77.6573,"MEAN_ANOMALY":282.4612,"EPHEMERIS_TYPE":0,"CLASSIFICATION_TYPE":"U","NORAD_CAT_ID":66064,"ELEMENT_SET_NO":999,"REV_AT_EPOCH":1387,"BSTAR":0.0011696275,"MEAN_MOTION_DOT":0.0003445,"MEAN_MOTION_DDOT":0}]
