STARLINK-35410          
1 66024U 25232V   26009.27384515  .00025053  00000+0  85471-3 0  9996
2 66024  53.1638  19.5387 0001428 137.5785 222.5326 15.30216312 14348
STARLINK-35280          
1 66025U 25232W   26009.34654676  .00014187  00000+0  49012-3 0  9990
2 66025  53.1608  19.2847 0001242  83.5800 276.5342 15.30206598 14359
STARLINK-34812          
1 66026U 25232X   26009.26974843  .00032027  00000+0  10886-2 0  9992
2 66026  53.1615  20.2225 0002025 151.6682 208.4429 15.30203856 14326
STARLINK-35341          
1 66027U 25232Y   26009.26763912  .00029926  00000+0  10190-2 0  9998
2 66027  53.1613  20.2042 0000882 101.5487 258.5613 15.30182147 14339
STARLINK-35339          
1 66028U 25232Z   26009.32027997  .00010624  00000+0  37034-3 0  9994
2 66028  53.1591  19.8249 0001066  94.3186 265.7937 15.30196447 14346
STARLINK-35399          
1 66029U 25232AA  26009.26340516  .00038429  00000+0  13021-2 0  9995
2 66029  53.1602  20.1779 0001083 106.2980 253.8140 15.30219588 14332
STARLINK-35431          
1 66030U 25232AB  26009.32238927  .00010981  00000+0  38236-3 0  9995
2 66030  53.1594  19.8352 0001220  79.0032 281.1106 15.30198105 14342
STARLINK-35326          
1 66031U 25232AC  26009.32660993  .00010071  00000+0  35177-3 0  9999
2 66031  53.1594  19.8566 0001179  81.5527 278.5608 15.30191732 14346
STARLINK-35311          
1 66032U 25232AD  26009.31605671  .00031086  00000+0  10575-2 0  9994
2 66032  53.1603  19.7877 0001377  82.3551 277.7606 15.30193771 14342
STARLINK-35552          
1 66058U 25235A   26009.63348869  .00027280  00000+0  93006-3 0  9995
2 66058  53.1579 157.1315 0000978 101.3268 258.7842 15.30191125 13913
STARLINK-35560          
1 66059U 25235B   26009.65934917  .00029587  00000+0  10070-2 0  9994
2 66059  53.1605 159.4608 0000834  95.5145 264.5951 15.30203632 13882
STARLINK-35558          
1 66060U 25235C   26009.62041439  .00022110  00000+0  75634-3 0  9994
2 66060  53.1600 159.9319 0001498 122.9614 237.1532 15.30203155 13876
STARLINK-35566          
1 66061U 25235D   26009.64035421  .00012177  00000+0  42263-3 0  9995
2 66061  53.1569 159.3399 0000970  89.0491 271.0621 15.30195289 13888
STARLINK-35421          
1 66062U 25235E   26009.67306936  .00022140  00000+0  75745-3 0  9993
2 66062  53.1598 159.5491 0001305  82.0270 278.0879 15.30198735 13888
STARLINK-35562          
1 66063U 25235F   26009.62885795  .00048255  00000+0  16291-2 0  9999
2 66063  53.1589 159.9785 0001261  66.4031 293.7102 15.30233870 13873
STARLINK-35542          
1 66064U 25235G   26009.60986640  .00034450  00000+0  11696-2 0  9995
2 66064  53.1606 159.8678 0001649  77.6573 282.4612 15.30206899 13871
